STARLINK-2045
1 27353C 21005E   21325.15920559 -.00006208  00000-0 -41591-3 0  3253
2 27353  53.0539 212.5051 0001612  75.5466 139.6078 15.06410279    18
